{"type": "FeatureCollection", "features": [ {"type": "Feature", "properties": {"norad_id": 65304, "name": "DRAGON CRS-33", "group": "stations", "lat": 7.248013475711125, "lon": -100.27776761307501, "alt_km": 418.3164433684833, "timestamp": "2025-12-24T05:51:18.359411+00:00", "meta": {"OBJECT_NAME": "DRAGON CRS-33", "OBJECT_ID": "2025-186A", "EPOCH": "2025-12-23T18:17:18.636000", "MEAN_MOTION": 15.49761422, "ECCENTRICITY": 0.00031718, "INCLINATION": 51.6321, "RA_OF_ASC_NODE": 87.8933, "ARG_OF_PERICENTER": 292.1344, "MEAN_ANOMALY": 67.9308, "EPHEMERIS_TYPE": 0, "CLASSIFICATION_TYPE": "U", "NORAD_CAT_ID": 65304, "ELEMENT_SET_NO": 999, "REV_AT_EPOCH": 11, "BSTAR": 0.00020966669, "MEAN_MOTION_DOT": 0.00011429, "MEAN_MOTION_DDOT": 0}, "tle": {"line1": "1 65304U 25186A   25357.76202125  .00011429  00000+0  20967-3 0  9990", "line2": "2 65304  51.6321  87.8933 0003171 292.1344  67.9308 15.49761422   119"}}, "geometry": {"type": "Point", "coordinates": [-100.27776761307501, 7.248013475711125]}}, {"type": "Feature", "properties": {"norad_id": 65586, "name": "PROGRESS-MS 32", "group": "stations", "lat": 7.2480129717721065, "lon": -100.27776720587251, "alt_km": 418.3164434205373, "timestamp": "2025-12-24T05:51:18.359421+00:00", "meta": {"OBJECT_NAME": "PROGRESS-MS 32", "OBJECT_ID": "2025-204A", "EPOCH": "2025-12-23T18:17:18.636000", "MEAN_MOTION": 15.49761422, "ECCENTRICITY": 0.00031718, "INCLINATION": 51.6321, "RA_OF_ASC_NODE": 87.8933, "ARG_OF_PERICENTER": 292.1344, "MEAN_ANOMALY": 67.9308, "EPHEMERIS_TYPE": 0, "CLASSIFICATION_TYPE": "U", "NORAD_CAT_ID": 65586, "ELEMENT_SET_NO": 999, "REV_AT_EPOCH": 27, "BSTAR": 0.00020966669, "MEAN_MOTION_DOT": 0.00011429, "MEAN_MOTION_DDOT": 0}, "tle": {"line1": "1 65586U 25204A   25357.76202125  .00011429  00000+0  20967-3 0  9993", "line2": "2 65586  51.6321  87.8933 0003171 292.1344  67.9308 15.49761422   278"}}, "geometry": {"type": "Point", "coordinates": [-100.27776720587251, 7.2480129717721065]}}, {"type": "Feature", "properties": {"norad_id": 65616, "name": "CYGNUS NG-23", "group": "stations", "lat": 7.248012467832786, "lon": -100.27776679866976, "alt_km": 418.31644347259316, "timestamp": "2025-12-24T05:51:18.359431+00:00", "meta": {"OBJECT_NAME": "CYGNUS NG-23", "OBJECT_ID": "2025-208A", "EPOCH": "2025-12-23T18:17:18.636000", "MEAN_MOTION": 15.49761422, "ECCENTRICITY": 0.00031718, "INCLINATION": 51.6321, "RA_OF_ASC_NODE": 87.8933, "ARG_OF_PERICENTER": 292.1344, "MEAN_ANOMALY": 67.9308, "EPHEMERIS_TYPE": 0, "CLASSIFICATION_TYPE": "U", "NORAD_CAT_ID": 65616, "ELEMENT_SET_NO": 999, "REV_AT_EPOCH": 22, "BSTAR": 0.00020966669, "MEAN_MOTION_DOT": 0.00011429, "MEAN_MOTION_DDOT": 0}, "tle": {"line1": "1 65616U 25208A   25357.76202125  .00011429  00000+0  20967-3 0  9991", "line2": "2 65616  51.6321  87.8933 0003171 292.1344  67.9308 15.49761422   227"}}, "geometry": {"type": "Point", "coordinates": [-100.27776679866976, 7.248012467832786]}}, {"type": "Feature", "properties": {"norad_id": 65729, "name": "DRAGONFLY", "group": "stations", "lat": 48.27194832248838, "lon": 139.377439721231, "alt_km": 335.3534461466579, "timestamp": "2025-12-24T05:51:18.359441+00:00", "meta": {"OBJECT_NAME": "DRAGONFLY", "OBJECT_ID": "1998-067XH", "EPOCH": "2025-12-23T20:25:05.088576", "MEAN_MOTION": 15.75691261, "ECCENTRICITY": 0.0007924, "INCLINATION": 51.6249, "RA_OF_ASC_NODE": 78.7101, "ARG_OF_PERICENTER": 343.6586, "MEAN_ANOMALY": 16.4157, "EPHEMERIS_TYPE": 0, "CLASSIFICATION_TYPE": "U", "NORAD_CAT_ID": 65729, "ELEMENT_SET_NO": 999, "REV_AT_EPOCH": 1491, "BSTAR": 0.0011533636, "MEAN_MOTION_DOT": 0.00184258, "MEAN_MOTION_DDOT": 0}, "tle": {"line1": "1 65729U 98067XH  25357.85075334  .00184258  00000+0  11534-2 0  9999", "line2": "2 65729  51.6249  78.7101 0007924 343.6586  16.4157 15.75691261 14911"}}, "geometry": {"type": "Point", "coordinates": [139.377439721231, 48.27194832248838]}}, {"type": "Feature", "properties": {"norad_id": 65731, "name": "1998-067XK", "group": "stations", "lat": 11.56373251894407, "lon": -110.55948140374691, "alt_km": 366.87278501220226, "timestamp": "2025-12-24T05:51:18.359452+00:00", "meta": {"OBJECT_NAME": "1998-067XK", "OBJECT_ID": "1998-067XK", "EPOCH": "2025-12-23T06:12:26.032896", "MEAN_MOTION": 15.67713225, "ECCENTRICITY": 0.00049619, "INCLINATION": 51.6292, "RA_OF_ASC_NODE": 83.7873, "ARG_OF_PERICENTER": 312.0823, "MEAN_ANOMALY": 47.9751, "EPHEMERIS_TYPE": 0, "CLASSIFICATION_TYPE": "U", "NORAD_CAT_ID": 65731, "ELEMENT_SET_NO": 999, "REV_AT_EPOCH": 1479, "BSTAR": 0.00091991075, "MEAN_MOTION_DOT": 0.00103596, "MEAN_MOTION_DDOT": 0}, "tle": {"line1": "1 65731U 98067XK  25357.25863464  .00103596  00000+0  91991-3 0  9997", "line2": "2 65731  51.6292  83.7873 0004961 312.0823  47.9751 15.67713225 14797"}}, "geometry": {"type": "Point", "coordinates": [-110.55948140374691, 11.56373251894407]}}, {"type": "Feature", "properties": {"norad_id": 65732, "name": "RSP-03", "group": "stations", "lat": -51.56361729093273, "lon": -9.065676817295952, "alt_km": 356.6453850207172, "timestamp": "2025-12-24T05:51:18.359465+00:00", "meta": {"OBJECT_NAME": "RSP-03", "OBJECT_ID": "1998-067XL", "EPOCH": "2025-12-23T22:35:50.917056", "MEAN_MOTION": 15.71457846, "ECCENTRICITY": 0.00059195, "INCLINATION": 51.6261, "RA_OF_ASC_NODE": 79.333, "ARG_OF_PERICENTER": 323.034, "MEAN_ANOMALY": 37.025, "EPHEMERIS_TYPE": 0, "CLASSIFICATION_TYPE": "U", "NORAD_CAT_ID": 65732, "ELEMENT_SET_NO": 999, "REV_AT_EPOCH": 1492, "BSTAR": 0.0010454019, "MEAN_MOTION_DOT": 0.00138258, "MEAN_MOTION_DDOT": 0}, "tle": {"line1": "1 65732U 98067XL  25357.94156154  .00138258  00000+0  10454-2 0  9992", "line2": "2 65732  51.6261  79.3330 0005919 323.0340  37.0250 15.71457846 14921"}}, "geometry": {"type": "Point", "coordinates": [-9.065676817295952, -51.56361729093273]}}, {"type": "Feature", "properties": {"norad_id": 65733, "name": "GHS-01", "group": "stations", "lat": 36.082208441409556, "lon": -139.45029095229995, "alt_km": 330.2475540732339, "timestamp": "2025-12-24T05:51:18.359475+00:00", "meta": {"OBJECT_NAME": "GHS-01", "OBJECT_ID": "1998-067XM", "EPOCH": "2025-12-23T11:05:04.304832", "MEAN_MOTION": 15.79591896, "ECCENTRICITY": 0.00088003, "INCLINATION": 51.6283, "RA_OF_ASC_NODE": 79.8731, "ARG_OF_PERICENTER": 346.0913, "MEAN_ANOMALY": 13.9844, "EPHEMERIS_TYPE": 0, "CLASSIFICATION_TYPE": "U", "NORAD_CAT_ID": 65733, "ELEMENT_SET_NO": 999, "REV_AT_EPOCH": 1487, "BSTAR": 0.0014327729, "MEAN_MOTION_DOT": 0.00275731, "MEAN_MOTION_DDOT": 0}, "tle": {"line1": "1 65733U 98067XM  25357.46185538  .00275731  00000+0  14328-2 0  9990", "line2": "2 65733  51.6283  79.8731 0008800 346.0913  13.9844 15.79591896 14877"}}, "geometry": {"type": "Point", "coordinates": [-139.45029095229995, 36.082208441409556]}}, {"type": "Feature", "properties": {"norad_id": 65941, "name": "YOTSUBA-KULOVER", "group": "stations", "lat": 9.251081078403018, "lon": 89.50535775932855, "alt_km": 382.9605137563176, "timestamp": "2025-12-24T05:51:18.359486+00:00", "meta": {"OBJECT_NAME": "YOTSUBA-KULOVER", "OBJECT_ID": "1998-067XN", "EPOCH": "2025-12-23T12:54:09.902304", "MEAN_MOTION": 15.60866, "ECCENTRICITY": 0.00021899, "INCLINATION": 51.6292, "RA_OF_ASC_NODE": 85.6499, "ARG_OF_PERICENTER": 347.5579, "MEAN_ANOMALY": 12.536, "EPHEMERIS_TYPE": 0, "CLASSIFICATION_TYPE": "U", "NORAD_CAT_ID": 65941, "ELEMENT_SET_NO": 999, "REV_AT_EPOCH": 1154, "BSTAR": 0.00081748527, "MEAN_MOTION_DOT": 0.00069745, "MEAN_MOTION_DDOT": 0}, "tle": {"line1": "1 65941U 98067XN  25357.53761461  .00069745  00000+0  81749-3 0  9992", "line2": "2 65941  51.6292  85.6499 0002189 347.5579  12.5360 15.60866000 11543"}}, "geometry": {"type": "Point", "coordinates": [89.50535775932855, 9.251081078403018]}}, {"type": "Feature", "properties": {"norad_id": 65942, "name": "BOTAN", "group": "stations", "lat": 30.042128966757204, "lon": -126.20138723006916, "alt_km": 370.86039953667387, "timestamp": "2025-12-24T05:51:18.359497+00:00", "meta": {"OBJECT_NAME": "BOTAN", "OBJECT_ID": "1998-067XP", "EPOCH": "2025-12-23T23:07:45.899616", "MEAN_MOTION": 15.65195853, "ECCENTRICITY": 0.00032883, "INCLINATION": 51.6282, "RA_OF_ASC_NODE": 82.4941, "ARG_OF_PERICENTER": 330.2787, "MEAN_ANOMALY": 29.802, "EPHEMERIS_TYPE": 0, "CLASSIFICATION_TYPE": "U", "NORAD_CAT_ID": 65942, "ELEMENT_SET_NO": 999, "REV_AT_EPOCH": 1162, "BSTAR": 0.0010936719, "MEAN_MOTION_DOT": 0.00111413, "MEAN_MOTION_DDOT": 0}, "tle": {"line1": "1 65942U 98067XP  25357.96372569  .00111413  00000+0  10937-2 0  9997", "line2": "2 65942  51.6282  82.4941 0003288 330.2787  29.8020 15.65195853 11620"}}, "geometry": {"type": "Point", "coordinates": [-126.20138723006916, 30.042128966757204]}}, {"type": "Feature", "properties": {"norad_id": 65943, "name": "E-KAGAKU-1", "group": "stations", "lat": 8.804477515552863, "lon": 89.14448543793063, "alt_km": 384.0606335344846, "timestamp": "2025-12-24T05:51:18.359507+00:00", "meta": {"OBJECT_NAME": "E-KAGAKU-1", "OBJECT_ID": "1998-067XQ", "EPOCH": "2025-12-22T10:46:55.533504", "MEAN_MOTION": 15.60710313, "ECCENTRICITY": 0.00012968, "INCLINATION": 51.6319, "RA_OF_ASC_NODE": 91.1385, "ARG_OF_PERICENTER": 295.9007, "MEAN_ANOMALY": 64.1852, "EPHEMERIS_TYPE": 0, "CLASSIFICATION_TYPE": "U", "NORAD_CAT_ID": 65943, "ELEMENT_SET_NO": 999, "REV_AT_EPOCH": 1137, "BSTAR": 0.00086344374, "MEAN_MOTION_DOT": 0.00073283, "MEAN_MOTION_DDOT": 0}, "tle": {"line1": "1 65943U 98067XQ  25356.44925386  .00073283  00000+0  86344-3 0  9999", "line2": "2 65943  51.6319  91.1385 0001296 295.9007  64.1852 15.60710313 11376"}}, "geometry": {"type": "Point", "coordinates": [89.14448543793063, 8.804477515552863]}}]}